{"fetched_at":"2026-07-22T07:09:23.719Z","source":"https://celestrak.org/NORAD/elements/gp.php?GROUP=planet&FORMAT=JSON","constellation":"pelican","records":[{"OBJECT_NAME":"PELICAN-1","OBJECT_ID":"2023-174AS","EPOCH":"2026-07-21T05:32:28.836384","CLASSIFICATION_TYPE":"U","MEAN_MOTION":15.72022582,"ECCENTRICITY":0.00082787,"INCLINATION":97.4013,"RA_OF_ASC_NODE":304.6842,"ARG_OF_PERICENTER":166.591,"MEAN_ANOMALY":193.5575,"EPHEMERIS_TYPE":0,"NORAD_CAT_ID":58296,"ELEMENT_SET_NO":999,"REV_AT_EPOCH":15151,"BSTAR":0.000056468308,"MEAN_MOTION_DOT":0.0000725,"MEAN_MOTION_DDOT":0},{"OBJECT_NAME":"PELICAN-2","OBJECT_ID":"2025-009Y","EPOCH":"2026-07-21T12:48:56.451744","CLASSIFICATION_TYPE":"U","MEAN_MOTION":15.40678499,"ECCENTRICITY":0.00028572,"INCLINATION":97.204,"RA_OF_ASC_NODE":292.9951,"ARG_OF_PERICENTER":108.3744,"MEAN_ANOMALY":251.7814,"EPHEMERIS_TYPE":0,"NORAD_CAT_ID":62631,"ELEMENT_SET_NO":999,"REV_AT_EPOCH":8484,"BSTAR":0.000002135628,"MEAN_MOTION_DOT":7e-8,"MEAN_MOTION_DDOT":0},{"OBJECT_NAME":"PELICAN-3","OBJECT_ID":"2025-188A","EPOCH":"2026-07-21T11:07:03.114336","CLASSIFICATION_TYPE":"U","MEAN_MOTION":15.4134221,"ECCENTRICITY":0.00021572,"INCLINATION":97.1974,"RA_OF_ASC_NODE":278.1098,"ARG_OF_PERICENTER":113.3462,"MEAN_ANOMALY":246.8013,"EPHEMERIS_TYPE":0,"NORAD_CAT_ID":65315,"ELEMENT_SET_NO":999,"REV_AT_EPOCH":5059,"BSTAR":0.00016607074,"MEAN_MOTION_DOT":0.00006842,"MEAN_MOTION_DDOT":0},{"OBJECT_NAME":"PELICAN-4","OBJECT_ID":"2025-188B","EPOCH":"2026-07-21T03:52:37.580448","CLASSIFICATION_TYPE":"U","MEAN_MOTION":15.40388216,"ECCENTRICITY":0.0001448,"INCLINATION":97.1982,"RA_OF_ASC_NODE":277.9554,"ARG_OF_PERICENTER":71.9459,"MEAN_ANOMALY":288.1946,"EPHEMERIS_TYPE":0,"NORAD_CAT_ID":65316,"ELEMENT_SET_NO":999,"REV_AT_EPOCH":5054,"BSTAR":0.00015376392,"MEAN_MOTION_DOT":0.00006131,"MEAN_MOTION_DDOT":0},{"OBJECT_NAME":"PELICAN-5","OBJECT_ID":"2025-276B","EPOCH":"2026-07-21T15:17:48.392160","CLASSIFICATION_TYPE":"U","MEAN_MOTION":15.33133291,"ECCENTRICITY":0.00026442,"INCLINATION":97.4117,"RA_OF_ASC_NODE":277.6194,"ARG_OF_PERICENTER":57.652,"MEAN_ANOMALY":302.4977,"EPHEMERIS_TYPE":0,"NORAD_CAT_ID":66667,"ELEMENT_SET_NO":999,"REV_AT_EPOCH":3579,"BSTAR":0.00056167504,"MEAN_MOTION_DOT":0.00017924,"MEAN_MOTION_DDOT":0},{"OBJECT_NAME":"PELICAN-6","OBJECT_ID":"2025-276AP","EPOCH":"2026-07-21T10:43:12.936000","CLASSIFICATION_TYPE":"U","MEAN_MOTION":15.3169562,"ECCENTRICITY":0.00024299,"INCLINATION":97.3674,"RA_OF_ASC_NODE":277.3898,"ARG_OF_PERICENTER":31.6484,"MEAN_ANOMALY":328.4904,"EPHEMERIS_TYPE":0,"NORAD_CAT_ID":66703,"ELEMENT_SET_NO":999,"REV_AT_EPOCH":3577,"BSTAR":0.00013871152,"MEAN_MOTION_DOT":0.00004167,"MEAN_MOTION_DDOT":0},{"OBJECT_NAME":"PELICAN-7","OBJECT_ID":"2026-100AP","EPOCH":"2026-07-21T07:14:27.749184","CLASSIFICATION_TYPE":"U","MEAN_MOTION":15.23850597,"ECCENTRICITY":0.00032828,"INCLINATION":97.3806,"RA_OF_ASC_NODE":99.6532,"ARG_OF_PERICENTER":78.6312,"MEAN_ANOMALY":281.5294,"EPHEMERIS_TYPE":0,"NORAD_CAT_ID":69017,"ELEMENT_SET_NO":999,"REV_AT_EPOCH":1200,"BSTAR":0.00012346739,"MEAN_MOTION_DOT":0.00002907,"MEAN_MOTION_DDOT":0},{"OBJECT_NAME":"PELICAN-9","OBJECT_ID":"2026-100AR","EPOCH":"2026-07-21T11:30:23.380992","CLASSIFICATION_TYPE":"U","MEAN_MOTION":15.2313652,"ECCENTRICITY":0.00033858,"INCLINATION":97.3465,"RA_OF_ASC_NODE":99.6391,"ARG_OF_PERICENTER":107.8901,"MEAN_ANOMALY":252.2705,"EPHEMERIS_TYPE":0,"NORAD_CAT_ID":69019,"ELEMENT_SET_NO":999,"REV_AT_EPOCH":1202,"BSTAR":0.0000689606,"MEAN_MOTION_DOT":0.00001559,"MEAN_MOTION_DDOT":0}]}
