{"epoch":1784710044,"count":18256,"objects":[{"id":"58296","name":"PELICAN-1 3001","type":"PAYLOAD","l1":"1 58296U 23174AS  26202.23088931  .00007250  00000-0  56468-4 0  9990","l2":"2 58296  97.4013 304.6842 0008279 166.5910 193.5575 15.72022582151519"},{"id":"62631","name":"PELICAN-2 3009","type":"PAYLOAD","l1":"1 62631U 25009Y   26202.53398671  .00000007  00000-0  21356-5 0  9997","l2":"2 62631  97.2040 292.9951 0002857 108.3744 251.7814 15.40678499 84843"},{"id":"65315","name":"PELICAN-3 300A","type":"PAYLOAD","l1":"1 65315U 25188A   26202.46323049  .00006842  00000-0  16607-3 0  9990","l2":"2 65315  97.1974 278.1098 0002157 113.3462 246.8013 15.41342210 50595"},{"id":"65316","name":"PELICAN-4 300B","type":"PAYLOAD","l1":"1 65316U 25188B   26202.16154607  .00006131  00000-0  15376-3 0  9993","l2":"2 65316  97.1982 277.9554 0001448  71.9459 288.1946 15.40388216 50540"},{"id":"66667","name":"PELICAN-5 300C","type":"PAYLOAD","l1":"1 66667U 25276B   26202.63736565  .00017924  00000-0  56168-3 0  9998","l2":"2 66667  97.4117 277.6194 0002644  57.6520 302.4977 15.33133291 35796"},{"id":"66703","name":"PELICAN-6 300D","type":"PAYLOAD","l1":"1 66703U 25276AP  26202.44667750  .00004167  00000-0  13871-3 0  9996","l2":"2 66703  97.3674 277.3898 0002430  31.6484 328.4904 15.31695620 35779"},{"id":"69017","name":"PELICAN-7 300E","type":"PAYLOAD","l1":"1 69017U 26100AP  26202.30171006  .00002907  00000-0  12347-3 0  9990","l2":"2 69017  97.3806  99.6532 0003283  78.6312 281.5294 15.23850597 12004"},{"id":"69019","name":"PELICAN-9 3010","type":"PAYLOAD","l1":"1 69019U 26100AR  26202.47943728  .00001559  00000-0  68961-4 0  9994","l2":"2 69019  97.3465  99.6391 0003386 107.8901 252.2705 15.23136520 12020"}]}